NORAD_CAT_ID,OBJECT_NAME,OBJECT_TYPE,EPOCH,MEAN_MOTION,ECCENTRICITY,INCLINATION,RA_OF_ASC_NODE,ARG_OF_PERICENTER,MEAN_ANOMALY,BSTAR,MEAN_MOTION_DOT,MEAN_MOTION_DDOT,TLE_LINE0,TLE_LINE1,TLE_LINE2,SEMIMAJOR_AXIS,PERIOD,APOGEE,PERIGEE,DECAYED
52624.0,STARLINK-4009,PAYLOAD,2022-11-03 01:58:15,15.08841125,0.00025,53.2183,357.6291,25.8828,334.2288,0.00016607,2.356e-05,0.0,0 STARLINK-4009,1 52624U 22052AC  22307.08211980  .00002356  00000-0  16607-3 0  9992,2 52624  53.2183 357.6291 0002500  25.8828 334.2288 15.08841125 26795,6917.877,95.437,541.471,538.012,0.0
52624.0,STARLINK-4009,PAYLOAD,2022-11-03 09:55:10,15.08847915,0.0002437,53.2178,356.1418,28.3071,331.8053,0.00021873,3.195e-05,0.0,0 STARLINK-4009,1 52624U 22052AC  22307.41331604  .00003195  00000-0  21873-3 0  9998,2 52624  53.2178 356.1418 0002437  28.3071 331.8053 15.08847915 26461,6917.856,95.437,541.4069999999998,538.035,0.0
52624.0,STARLINK-4009,PAYLOAD,2022-11-04 01:49:01,15.08863868,0.0002824,53.2156,353.1676,23.8136,336.2986,0.00059233,9.158e-05,0.0,0 STARLINK-4009,1 52624U 22052AC  22308.07571082  .00009158  00000-0  59233-3 0  9993,2 52624  53.2156 353.1676 0002824  23.8136 336.2986 15.08863868 26944,6917.807,95.436,541.626,537.719,0.0
52624.0,STARLINK-4009,PAYLOAD,2022-11-04 08:10:34,15.08851521,0.0002582,53.2172,351.9792,24.9891,335.1226,0.00029773,4.455e-05,0.0,0 STARLINK-4009,1 52624U 22052AC  22308.34067221  .00004455  00000-0  29773-3 0  9999,2 52624  53.2172 351.9792 0002582  24.9891 335.1226 15.08851521 26980,6917.845,95.437,541.496,537.924,0.0
52624.0,STARLINK-4009,PAYLOAD,2022-11-04 12:56:43,15.08845383,0.0002682,53.2175,351.0881,23.684,336.4276,0.00017953,2.57e-05,0.0,0 STARLINK-4009,1 52624U 22052AC  22308.53939044  .00002570  00000-0  17953-3 0  9994,2 52624  53.2175 351.0881 0002682  23.6840 336.4276 15.08845383 26634,6917.864000000001,95.437,541.5840000000002,537.874,0.0
52624.0,STARLINK-4009,PAYLOAD,2022-11-05 03:15:12,15.08840089,0.0002516,53.2177,348.4104,24.0415,336.0694,-6.5489e-05,-1.331e-05,0.0,0 STARLINK-4009,1 52624U 22052AC  22309.13555585 -.00001331  00000-0 -65489-4 0  9999,2 52624  53.2177 348.4104 0002516  24.0415 336.0694 15.08840089 27104,6917.88,95.438,541.486,538.005,0.0
52624.0,STARLINK-4009,PAYLOAD,2022-11-05 09:36:45,15.08829209,0.0002557,53.2191,347.2185,23.9926,336.1185,-0.00015284,-2.719e-05,0.0,0 STARLINK-4009,1 52624U 22052AC  22309.40052574 -.00002719  00000-0 -15284-3 0  9997,2 52624  53.2191 347.2185 0002557  23.9926 336.1185 15.08829209 27147,6917.913000000001,95.438,541.547,538.009,0.0
52624.0,STARLINK-4009,PAYLOAD,2022-11-05 12:47:32,15.08823443,0.0002444,53.2172,346.6276,25.0814,335.0296,-0.00019599,-3.405e-05,0.0,0 STARLINK-4009,1 52624U 22052AC  22309.53301167 -.00003405  00000-0 -19599-3 0  9992,2 52624  53.2172 346.6276 0002444  25.0814 335.0296 15.08823443 26788,6917.931,95.439,541.487,538.105,0.0
52624.0,STARLINK-4009,PAYLOAD,2022-11-05 19:09:04,15.08825774,0.0002535,53.2169,345.4384,25.5513,334.5604,-0.00025099,-4.279e-05,0.0,0 STARLINK-4009,1 52624U 22052AC  22309.79797361 -.00004279  00000-0 -25099-3 0  9997,2 52624  53.2169 345.4384 0002535  25.5513 334.5604 15.08825774 26824,6917.924,95.438,541.543,538.035,0.0
52624.0,STARLINK-4009,PAYLOAD,2022-11-06 07:52:09,15.08835013,0.0002752,53.2173,343.0586,25.4442,334.6685,-8.2154e-05,-1.596e-05,0.0,0 STARLINK-4009,1 52624U 22052AC  22310.32788487 -.00001596  00000-0 -82154-4 0  9992,2 52624  53.2173 343.0586 0002752  25.4442 334.6685 15.08835013 27286,6917.896,95.438,541.664,537.857,0.0
52624.0,STARLINK-4009,PAYLOAD,2022-11-06 18:59:50,15.08841535,0.0002698,53.2175,340.9767,26.2115,333.9014,6.2827e-05,7.12e-06,0.0,0 STARLINK-4009,1 52624U 22052AC  22310.79155750  .00000712  00000-0  62827-4 0  9996,2 52624  53.2175 340.9767 0002698  26.2115 333.9014 15.08841535 27352,6917.876,95.437,541.607,537.874,0.0
52624.0,STARLINK-4009,PAYLOAD,2022-11-07 09:18:20,15.08826618,0.0002709,53.2176,338.3004,27.7011,332.4125,6.343100000000001e-05,7.21e-06,0.0,0 STARLINK-4009,1 52624U 22052AC  22311.38773305  .00000721  00000-0  63431-4 0  9996,2 52624  53.2176 338.3004 0002709  27.7011 332.4125 15.08826618 27444,6917.920999999999,95.438,541.66,537.9119999999998,0.0
52624.0,STARLINK-4009,PAYLOAD,2022-11-07 12:29:06,15.08823301,0.0002719,53.2176,337.7057,26.8289,333.2843,0.00013786,1.905e-05,0.0,0 STARLINK-4009,1 52624U 22052AC  22311.52021612  .00001905  00000-0  13786-3 0  9991,2 52624  53.2176 337.7057 0002719  26.8289 333.2843 15.08823301 27085,6917.931,95.439,541.677,537.915,0.0
52624.0,STARLINK-4009,PAYLOAD,2022-11-08 01:12:11,15.08839872,0.0002744,53.219,335.3268,21.6588,338.452,0.00033717,5.082e-05,0.0,0 STARLINK-4009,1 52624U 22052AC  22312.05012818  .00005082  00000-0  33717-3 0  9994,2 52624  53.2190 335.3268 0002744  21.6588 338.4520 15.08839872 27542,6917.880999999999,95.438,541.644,537.8480000000002,0.0
52624.0,STARLINK-4009,PAYLOAD,2022-11-08 05:58:19,15.08858943,0.0002707,53.2168,334.4345,29.7128,330.4018,0.00047267,7.246e-05,0.0,0 STARLINK-4009,1 52624U 22052AC  22312.24883771  .00007246  00000-0  47267-3 0  9998,2 52624  53.2168 334.4345 0002707  29.7128 330.4018 15.08858943 27578,6917.821999999999,95.436,541.56,537.815,0.0
52624.0,STARLINK-4009,PAYLOAD,2022-11-08 09:09:05,15.08859616,0.0002591,53.2167,333.8405,28.9218,331.1918,0.00046249,7.084e-05,0.0,0 STARLINK-4009,1 52624U 22052AC  22312.38131836  .00007084  00000-0  46249-3 0  9990,2 52624  53.2167 333.8405 0002591  28.9218 331.1918 15.08859616 27215,6917.82,95.436,541.4780000000002,537.893,0.0
52624.0,STARLINK-4009,PAYLOAD,2022-11-08 20:16:46,15.08873843,0.000267,53.2162,331.7580000000001,27.4909,332.6224,0.00062739,9.72e-05,0.0,0 STARLINK-4009,1 52624U 22052AC  22312.84498752  .00009720  00000-0  62739-3 0  9995,2 52624  53.2162 331.7580 0002670  27.4909 332.6224 15.08873843 27281,6917.776999999999,95.435,541.489,537.795,0.0
52624.0,STARLINK-4009,PAYLOAD,2022-11-09 08:59:52,15.08849307,0.0003327,53.2167,329.3795,26.2166,333.8994,0.0001177,1.586e-05,0.0,0 STARLINK-4009,1 52624U 22052AC  22313.37491029  .00001586  00000-0  11770-3 0  9995,2 52624  53.2167 329.3795 0003327  26.2166 333.8994 15.08849307 27745,6917.852,95.437,542.019,537.415,0.0
52624.0,STARLINK-4009,PAYLOAD,2022-11-09 18:32:11,15.08829035,0.0002913,53.2164,327.5951,30.844,329.2723,-0.00041172,-6.834e-05,0.0,0 STARLINK-4009,1 52624U 22052AC  22313.77235624 -.00006834  00000-0 -41172-3 0  9998,2 52624  53.2164 327.5951 0002913  30.8440 329.2723 15.08829035 27804,6917.9140000000025,95.438,541.794,537.764,0.0
52624.0,STARLINK-4009,PAYLOAD,2022-11-09 20:07:34,15.08825031,0.0002617,53.2164,327.2981,22.9102,337.2007,-0.00080221,-0.00013028,0.0,0 STARLINK-4009,1 52624U 22052AC  22313.83859009 -.00013028  00000-0 -80221-3 0  9995,2 52624  53.2164 327.2981 0002617  22.9102 337.2007 15.08825031 27437,6917.926,95.439,541.602,537.981,0.0
52624.0,STARLINK-4009,PAYLOAD,2022-11-10 07:15:16,15.08824483,0.0002624,53.2155,325.2153,24.7842,335.3276,0.00031881,4.787e-05,0.0,0 STARLINK-4009,1 52624U 22052AC  22314.30227610  .00004787  00000-0  31881-3 0  9993,2 52624  53.2155 325.2153 0002624  24.7842 335.3276 15.08824483 27500,6917.928000000001,95.439,541.6080000000002,537.9780000000002,0.0
52624.0,STARLINK-4009,PAYLOAD,2022-11-10 18:22:59,15.088340900000002,0.0002692,53.2155,323.1336,25.6729,334.4396,0.00091971,0.00014377,0.0,0 STARLINK-4009,1 52624U 22052AC  22314.76596115  .00014377  00000-0  91971-3 0  9994,2 52624  53.2155 323.1336 0002692  25.6729 334.4396 15.08834090 27574,6917.898,95.438,541.626,537.901,0.0
52624.0,STARLINK-4009,PAYLOAD,2022-11-11 00:44:31,15.08850606,0.0002743,53.216,321.9446,25.4655,334.6472,0.0011583,0.000182,0.0,0 STARLINK-4009,1 52624U 22052AC  22315.03091838  .00018200  00000-0  11583-2 0  9996,2 52624  53.2160 321.9446 0002743  25.4655 334.6472 15.08850606 27995,6917.848000000001,95.437,541.611,537.815,0.0
52624.0,STARLINK-4009,PAYLOAD,2022-11-11 07:06:03,15.08842004,0.0002723999999999,53.2159,320.7543,26.435,333.6781,0.00046508,7.122e-05,0.0,0 STARLINK-4009,1 52624U 22052AC  22315.29587916  .00007122  00000-0  46508-3 0  9998,2 52624  53.2159 320.7543 0002724  26.4350 333.6781 15.08842004 28031,6917.874,95.437,541.624,537.855,0.0
52624.0,STARLINK-4009,PAYLOAD,2022-11-12 06:56:50,15.08841622,0.0002745,53.2161,316.2938,22.4368,337.6744,0.00016364,2.317e-05,0.0,0 STARLINK-4009,1 52624U 22052AC  22316.28947901  .00002317  00000-0  16364-3 0  9990,2 52624  53.2161 316.2938 0002745  22.4368 337.6744 15.08841622 28184,6917.875,95.437,541.639,537.841,0.0
52624.0,STARLINK-4009,PAYLOAD,2022-11-13 09:58:25,15.0881989,0.0003294,53.2189,311.2411,28.3033,331.8137,-0.0003908,-6.500000000000001e-05,0.0,0 STARLINK-4009,1 52624U 22052AC  22317.41556893 -.00006500  00000-0 -39080-3 0  9992,2 52624  53.2189 311.2411 0003294  28.3033 331.8137 15.08819890 28352,6917.941999999999,95.439,542.086,537.528,0.0
52624.0,STARLINK-4009,PAYLOAD,2022-11-14 08:13:49,15.08833434,0.0002726,53.217,307.0761,26.066,334.0469,0.00032253,4.848e-05,0.0,0 STARLINK-4009,1 52624U 22052AC  22318.34293864  .00004848  00000-0  32253-3 0  9997,2 52624  53.2170 307.0761 0002726  26.0660 334.0469 15.08833434 28491,6917.9,95.438,541.651,537.88,0.0
52624.0,STARLINK-4009,PAYLOAD,2022-11-14 09:49:13,15.08832707,0.0002685,53.2165,306.7789,25.6914,334.4211,0.00037188,5.634e-05,0.0,0 STARLINK-4009,1 52624U 22052AC  22318.40917884  .00005634  00000-0  37188-3 0  9995,2 52624  53.2165 306.7789 0002685  25.6914 334.4211 15.08832707 28123,6917.903,95.438,541.625,537.91,0.0
52624.0,STARLINK-4009,PAYLOAD,2022-11-15 09:39:59,15.08842249,0.0002843,53.2167,302.3188,24.6062,335.5065,0.0002247,3.2899999999999987e-05,0.0,0 STARLINK-4009,1 52624U 22052AC  22319.40277449  .00003290  00000-0  22470-3 0  9996,2 52624  53.2167 302.3188 0002843  24.6062 335.5065 15.08842249 28658,6917.874,95.437,541.705,537.7719999999998,0.0
